IRIDIUM 57              
1 25273U 98019B   24238.79282792  .00000652  00000+0  22076-3 0  9993
2 25273  86.3909 268.9579 0002253  91.1009 269.0445 14.35351070382400
IRIDIUM 63              
1 25286U 98021B   24238.92906554  .00001095  00000+0  37092-3 0  9990
2 25286  86.4014 205.8175 0002487  92.0799 268.0683 14.35923164381466
IRIDIUM 69              
1 25319U 98026A   24238.93093320  .00000931  00000+0  28843-3 0  9993
2 25319  86.3978 219.9835 0000328  18.4179 341.7032 14.40175343380556
IRIDIUM 71              
1 25320U 98026B   24238.91608159  .00001047  00000+0  32334-3 0  9994
2 25320  86.3987 214.7392 0002656  39.5406 320.5986 14.40485343381077
IRIDIUM 73              
1 25344U 98032C   24238.90062704  .00001638  00000+0  41121-3 0  9996
2 25344  86.4489 172.1087 0001879  83.5937 276.5482 14.50780162387731
IRIDIUM 82              
1 25467U 98051A   24238.78037505  .00022649  00000+0  10666-2 0  9994
2 25467  86.3707 252.6718 0117930 325.0871  34.2671 15.13337157379003
